CALSPHERE 1             
<<<<<<< .mine
1 00900U 64063C   09145.00766233  .00000175  00000-0  18719-3 0  7938
2 00900  90.1593 326.6963 0025917 304.5101  55.3629 13.70455974216296
=======
1 00900U 64063C   09122.08166034  .00000191  00000-0  20532-3 0  7747
2 00900  90.1589 326.3130 0028557  14.2346 345.9626 13.70446875213150
>>>>>>> .r148
CALSPHERE 2             
<<<<<<< .mine
1 00902U 64063E   09144.55870270  .00000075  00000-0  10000-3 0   652
2 00902  90.1581 329.6887 0017237 323.4985  36.4991 13.52464460 14174
=======
1 00902U 64063E   09122.51173852  .00000075  00000-0  10000-3 0   476
2 00902  90.1596 329.3342 0019331  26.0019 334.2090 13.52463949 11193
>>>>>>> .r148
LCS 1                   
<<<<<<< .mine
1 01361U 65034C   09144.61255536  .00000009  00000-0  10000-3 0  1568
2 01361  32.1417 215.0168 0006071 256.1756 103.8068  9.89276390593028
=======
1 01361U 65034C   09121.79080963  .00000009  00000-0  10000-3 0  1270
2 01361  32.1438 269.1994 0005459 176.9342 183.1190  9.89275939590760
>>>>>>> .r148
TEMPSAT 1               
<<<<<<< .mine
1 01512U 65065E   09144.96837339  .00000060  00000-0  10000-3 0  1483
2 01512  89.8089 300.8147 0071588 104.8721 256.0363 13.33258708129533
=======
1 01512U 65065E   09121.92846572  .00000059  00000-0  10000-3 0  1302
2 01512  89.8075 301.2478 0069637 168.7077 191.5642 13.33258476126469
>>>>>>> .r148
CALSPHERE 4(A)          
<<<<<<< .mine
1 01520U 65065H   09144.76196947  .00000060  00000-0  10000-3 0  2822
2 01520  90.1870  82.8051 0072146  34.4205 326.1579 13.35314317131129
=======
1 01520U 65065H   09122.43209623  .00000061  00000-0  10000-3 0  2638
2 01520  90.1851  82.3898 0072335  95.7511 265.1880 13.35312166128147
>>>>>>> .r148
OPS 5712 (P/L 160)      
<<<<<<< .mine
1 02826U 67053A   09145.17045465  .00000356  00000-0  13670-3 0  7284
2 02826  69.9345 221.0678 0007664 194.3035 165.7896 14.38235793163984
=======
1 02826U 67053A   09122.01074238  .00000310  00000-0  12160-3 0  7094
2 02826  69.9332 274.3107 0008181 217.5779 142.4794 14.38216703160656
>>>>>>> .r148
OPS 5712 (P/L 153)      
<<<<<<< .mine
1 02874U 67053H   09144.49462994 -.00000030  00000-0  17247-4 0  1202
2 02874  69.9705 142.6694 0007195 343.6419  16.4455 13.95922495137233
=======
1 02874U 67053H   09121.63646007 -.00000023  00000-0  22089-4 0   999
2 02874  69.9730 191.5903 0005944  16.3283 343.8018 13.95921419134043
>>>>>>> .r148
SURCAL 150B             
<<<<<<< .mine
1 02909U 67053J   09144.69864881  .00000440  00000-0  13917-3 0  9058
2 02909  69.9562  37.5105 0003570 334.3953  25.6993 14.46447624169579
=======
1 02909U 67053J   09122.70763878  .00000440  00000-0  13933-3 0  8866
2 02909  69.9541  88.6874 0002390 340.5081  19.5969 14.46423385166396
>>>>>>> .r148
RIGIDSPHERE 2 (LCS 4)   
<<<<<<< .mine
1 05398U 71067E   09144.70116094  .00000223  00000-0  76419-4 0  5682
2 05398  87.6215 255.8764 0063316 251.4987 107.9333 14.31150271981209
=======
1 05398U 71067E   09122.11751515  .00000109  00000-0  34053-4 0  5496
2 05398  87.6193 262.0810 0064491 328.1750  31.5558 14.31143190977973
>>>>>>> .r148
RADCAT                  
<<<<<<< .mine
1 06212U 72076A   09144.73312375  .00002013  00000-0  75450-4 0  7474
2 06212  98.5939 149.2477 0004668  81.3504 278.8257 15.28765573119295
=======
1 06212U 72076A   09122.41292270  .00001448  00000-0  55389-4 0  7285
2 06212  98.5955 123.4952 0004086 136.5435 223.6149 15.28671075115887
>>>>>>> .r148
